SPORT                   
1 55129U 98067UW  23037.89616658  .00036741  00000+0  58324-3 0  9991
2 55129  51.6389 253.4384 0001825 337.3433  22.7476 15.52988850  6192
PETITSAT                
1 55130U 98067UX  23037.99013820  .00115733  00000+0  15606-2 0  9990
2 55130  51.6382 252.5670 0003646 268.5408  91.5167 15.56925705  6167
SS-1                    
1 55181U 98067UY  23038.77650241  .00095025  00000+0  13519-2 0  9999
2 55181  51.6384 248.8177 0005031 283.6837  76.3594 15.55567114  5045
HSKSAT                  
1 55182U 98067UZ  23038.46553606  .00072627  00000+0  10883-2 0  9997
2 55182  51.6381 250.4912 0004115 279.1714  80.8811 15.54274030  5004
OPTIMAL-1               
1 55183U 98067VA  23037.89189628  .00045368  00000+0  70071-3 0  9991
2 55183  51.6392 253.4107 0004048  12.8349 347.2744 15.53644456  4913
ISS DEB (SPX-26 IPA FSE)
1 55448U 98067VB  23038.78602704  .00027616  00000+0  47819-3 0  9999
2 55448  51.6431 249.4450 0004278 322.9320 123.9056 15.50695856  1106
